{
  "type": "FeatureCollection",
  "features": [
    {
      "type": "Feature",
      "properties": {
        "norad_id": 30004,
        "name": "FENGYUN 1C DEB",
        "group": "fengyun-1c-debris",
        "lat": -70.46469648106371,
        "lon": -42.25601291549042,
        "alt_km": 846.3642187365385,
        "timestamp": "2025-12-09T23:33:24.127728+00:00",
        "meta_object_name": "FENGYUN 1C DEB",
        "meta_object_id": "1999-025MD",
        "meta_epoch": "2025-12-09T10:46:30.861120",
        "meta_mean_motion": 14.17046179,
        "meta_eccentricity": 0.00386681,
        "meta_inclination": 99.2235,
        "meta_ra_of_asc_node": 164.4473,
        "meta_arg_of_pericenter": 352.1629,
        "meta_mean_anomaly": 65.6566,
        "meta_ephemeris_type": 0,
        "meta_classification_type": "U",
        "meta_norad_cat_id": 30004,
        "meta_element_set_no": 999,
        "meta_rev_at_epoch": 97260,
        "meta_bstar": 0.0011820754,
        "meta_mean_motion_dot": 2.348e-05,
        "meta_mean_motion_ddot": 0,
        "tle_line1": "1 30004U 99025MD  25343.44896830  .00002348  00000+0  11821-2 0  9992",
        "tle_line2": "2 30004  99.2235 164.4473 0038668 352.1629  65.6566 14.17046179972605"
      },
      "geometry": {
        "type": "Point",
        "coordinates": [
          -42.25601291549042,
          -70.46469648106371
        ]
      }
    },
    {
      "type": "Feature",
      "properties": {
        "norad_id": 30005,
        "name": "FENGYUN 1C DEB",
        "group": "fengyun-1c-debris",
        "lat": 4.55834174316303,
        "lon": -54.648283257302566,
        "alt_km": 1082.6722440475924,
        "timestamp": "2025-12-09T23:33:24.127746+00:00",
        "meta_object_name": "FENGYUN 1C DEB",
        "meta_object_id": "1999-025ME",
        "meta_epoch": "2025-12-09T09:19:38.162496",
        "meta_mean_motion": 13.52206035,
        "meta_eccentricity": 0.0346658,
        "meta_inclination": 99.3019,
        "meta_ra_of_asc_node": 305.5434,
        "meta_arg_of_pericenter": 101.84,
        "meta_mean_anomaly": 262.1829,
        "meta_ephemeris_type": 0,
        "meta_classification_type": "U",
        "meta_norad_cat_id": 30005,
        "meta_element_set_no": 999,
        "meta_rev_at_epoch": 92901,
        "meta_bstar": 0.0016875402,
        "meta_mean_motion_dot": 1.585e-05,
        "meta_mean_motion_ddot": 0,
        "tle_line1": "1 30005U 99025ME  25343.38863614  .00001585  00000+0  16875-2 0  9996",
        "tle_line2": "2 30005  99.3019 305.5434 0346658 101.8400 262.1829 13.52206035929019"
      },
      "geometry": {
        "type": "Point",
        "coordinates": [
          -54.648283257302566,
          4.55834174316303
        ]
      }
    },
    {
      "type": "Feature",
      "properties": {
        "norad_id": 30007,
        "name": "FENGYUN 1C DEB",
        "group": "fengyun-1c-debris",
        "lat": -46.24386073639721,
        "lon": 55.481198061198384,
        "alt_km": 856.8610738047955,
        "timestamp": "2025-12-09T23:33:24.127756+00:00",
        "meta_object_name": "FENGYUN 1C DEB",
        "meta_object_id": "1999-025MG",
        "meta_epoch": "2025-12-09T11:30:46.990656",
        "meta_mean_motion": 14.25373311,
        "meta_eccentricity": 0.00657157,
        "meta_inclination": 99.1776,
        "meta_ra_of_asc_node": 244.677,
        "meta_arg_of_pericenter": 23.9099,
        "meta_mean_anomaly": 149.7708,
        "meta_ephemeris_type": 0,
        "meta_classification_type": "U",
        "meta_norad_cat_id": 30007,
        "meta_element_set_no": 999,
        "meta_rev_at_epoch": 97309,
        "meta_bstar": 0.0029167545,
        "meta_mean_motion_dot": 6.992e-05,
        "meta_mean_motion_ddot": 0,
        "tle_line1": "1 30007U 99025MG  25343.47971054  .00006992  00000+0  29168-2 0  9992",
        "tle_line2": "2 30007  99.1776 244.6770 0065715  23.9099 149.7708 14.25373311973091"
      },
      "geometry": {
        "type": "Point",
        "coordinates": [
          55.481198061198384,
          -46.24386073639721
        ]
      }
    },
    {
      "type": "Feature",
      "properties": {
        "norad_id": 30008,
        "name": "FENGYUN 1C DEB",
        "group": "fengyun-1c-debris",
        "lat": 74.68462631788724,
        "lon": -97.10679410936542,
        "alt_km": 680.8483746651182,
        "timestamp": "2025-12-09T23:33:24.127767+00:00",
        "meta_object_name": "FENGYUN 1C DEB",
        "meta_object_id": "1999-025MH",
        "meta_epoch": "2025-12-09T15:48:58.019040",
        "meta_mean_motion": 14.66183507,
        "meta_eccentricity": 0.00386813,
        "meta_inclination": 99.369,
        "meta_ra_of_asc_node": 299.6019,
        "meta_arg_of_pericenter": 201.799,
        "meta_mean_anomaly": 335.0375,
        "meta_ephemeris_type": 0,
        "meta_classification_type": "U",
        "meta_norad_cat_id": 30008,
        "meta_element_set_no": 999,
        "meta_rev_at_epoch": 99014,
        "meta_bstar": 0.0030632086,
        "meta_mean_motion_dot": 0.00017019,
        "meta_mean_motion_ddot": 0,
        "tle_line1": "1 30008U 99025MH  25343.65900485  .00017019  00000+0  30632-2 0  9993",
        "tle_line2": "2 30008  99.3690 299.6019 0038681 201.7990 335.0375 14.66183507990149"
      },
      "geometry": {
        "type": "Point",
        "coordinates": [
          -97.10679410936542,
          74.68462631788724
        ]
      }
    },
    {
      "type": "Feature",
      "properties": {
        "norad_id": 30009,
        "name": "FENGYUN 1C DEB",
        "group": "fengyun-1c-debris",
        "lat": 27.10363549602388,
        "lon": 34.26221932729648,
        "alt_km": 842.5696406171746,
        "timestamp": "2025-12-09T23:33:24.127777+00:00",
        "meta_object_name": "FENGYUN 1C DEB",
        "meta_object_id": "1999-025MJ",
        "meta_epoch": "2025-12-09T09:45:12.077856",
        "meta_mean_motion": 14.04845075,
        "meta_eccentricity": 0.00637778,
        "meta_inclination": 99.0149,
        "meta_ra_of_asc_node": 38.3514,
        "meta_arg_of_pericenter": 344.9975,
        "meta_mean_anomaly": 14.9299,
        "meta_ephemeris_type": 0,
        "meta_classification_type": "U",
        "meta_norad_cat_id": 30009,
        "meta_element_set_no": 999,
        "meta_rev_at_epoch": 96436,
        "meta_bstar": 0.0010296232,
        "meta_mean_motion_dot": 1.639e-05,
        "meta_mean_motion_ddot": 0,
        "tle_line1": "1 30009U 99025MJ  25343.40638979  .00001639  00000+0  10296-2 0  9998",
        "tle_line2": "2 30009  99.0149  38.3514 0063777 344.9975  14.9299 14.04845075964361"
      },
      "geometry": {
        "type": "Point",
        "coordinates": [
          34.26221932729648,
          27.10363549602388
        ]
      }
    },
    {
      "type": "Feature",
      "properties": {
        "norad_id": 30010,
        "name": "FENGYUN 1C DEB",
        "group": "fengyun-1c-debris",
        "lat": 18.675019427421972,
        "lon": 172.95150566661692,
        "alt_km": 858.2062263212838,
        "timestamp": "2025-12-09T23:33:24.127787+00:00",
        "meta_object_name": "FENGYUN 1C DEB",
        "meta_object_id": "1999-025MK",
        "meta_epoch": "2025-12-09T11:45:58.495104",
        "meta_mean_motion": 14.24984319,
        "meta_eccentricity": 0.00725547,
        "meta_inclination": 99.0699,
        "meta_ra_of_asc_node": 175.539,
        "meta_arg_of_pericenter": 218.7894,
        "meta_mean_anomaly": 161.2047,
        "meta_ephemeris_type": 0,
        "meta_classification_type": "U",
        "meta_norad_cat_id": 30010,
        "meta_element_set_no": 999,
        "meta_rev_at_epoch": 98214,
        "meta_bstar": 0.00025048768,
        "meta_mean_motion_dot": 5.55e-06,
        "meta_mean_motion_ddot": 0,
        "tle_line1": "1 30010U 99025MK  25343.49026036  .00000555  00000+0  25049-3 0  9993",
        "tle_line2": "2 30010  99.0699 175.5390 0072554 218.7894 161.2047 14.24984319982140"
      },
      "geometry": {
        "type": "Point",
        "coordinates": [
          172.95150566661692,
          18.675019427421972
        ]
      }
    },
    {
      "type": "Feature",
      "properties": {
        "norad_id": 30012,
        "name": "FENGYUN 1C DEB",
        "group": "fengyun-1c-debris",
        "lat": -0.12005070248087069,
        "lon": 37.20589084996066,
        "alt_km": 1035.468088348417,
        "timestamp": "2025-12-09T23:33:24.127798+00:00",
        "meta_object_name": "FENGYUN 1C DEB",
        "meta_object_id": "1999-025MM",
        "meta_epoch": "2025-12-09T03:01:53.489856",
        "meta_mean_motion": 13.85761314,
        "meta_eccentricity": 0.0136995,
        "meta_inclination": 99.4647,
        "meta_ra_of_asc_node": 36.3222,
        "meta_arg_of_pericenter": 155.2517,
        "meta_mean_anomaly": 261.2841,
        "meta_ephemeris_type": 0,
        "meta_classification_type": "U",
        "meta_norad_cat_id": 30012,
        "meta_element_set_no": 999,
        "meta_rev_at_epoch": 95498,
        "meta_bstar": 0.00042279481,
        "meta_mean_motion_dot": 4.76e-06,
        "meta_mean_motion_ddot": 0,
        "tle_line1": "1 30012U 99025MM  25343.12631354  .00000476  00000+0  42279-3 0  9996",
        "tle_line2": "2 30012  99.4647  36.3222 0136995 155.2517 261.2841 13.85761314954982"
      },
      "geometry": {
        "type": "Point",
        "coordinates": [
          37.20589084996066,
          -0.12005070248087069
        ]
      }
    }
  ]
}